NORAD_CAT_ID,OBJECT_NAME,OBJECT_TYPE,EPOCH,MEAN_MOTION,ECCENTRICITY,INCLINATION,RA_OF_ASC_NODE,ARG_OF_PERICENTER,MEAN_ANOMALY,BSTAR,MEAN_MOTION_DOT,MEAN_MOTION_DDOT,TLE_LINE0,TLE_LINE1,TLE_LINE2,SEMIMAJOR_AXIS,PERIOD,APOGEE,PERIGEE,DECAYED
54184.0,STARLINK-5162,PAYLOAD,2023-04-28 00:49:46,15.08833801,0.0001254,53.2188,22.3614,103.7512,256.362,0.00056052,8.642e-05,0.0,0 STARLINK-5162,1 54184U 22141AD  23118.03456817  .00008642  00000-0  56052-3 0  9992,2 54184  53.2188  22.3614 0001254 103.7512 256.3620 15.08833801 28089,6917.899,95.438,540.632,538.897,0.0
54184.0,STARLINK-5162,PAYLOAD,2023-04-28 10:22:05,15.08835689,0.0001183,53.219,20.5759,88.8235,271.2893,0.00051099,7.853e-05,0.0,0 STARLINK-5162,1 54184U 22141AD  23118.43201115  .00007853  00000-0  51099-3 0  9994,2 54184  53.2190  20.5759 0001183  88.8235 271.2893 15.08835689 27913,6917.894,95.438,540.577,538.94,0.0
54184.0,STARLINK-5162,PAYLOAD,2023-04-29 02:15:57,15.08847531,0.00013,53.219,17.6045,100.4766,259.6372,1.4431e-05,-5.8e-07,0.0,0 STARLINK-5162,1 54184U 22141AD  23119.09441673 -.00000058  00000-0  14431-4 0  9993,2 54184  53.2190  17.6045 0001300 100.4766 259.6372 15.08847531 28247,6917.857,95.437,540.622,538.823,0.0
54184.0,STARLINK-5162,PAYLOAD,2023-04-30 02:06:43,15.08848744,0.0001449,53.2175,13.1411,77.1056,283.0098,-7.3133e-05,-1.452e-05,0.0,0 STARLINK-5162,1 54184U 22141AD  23120.08800879 -.00001452  00000-0 -73133-4 0  9995,2 54184  53.2175  13.1411 0001449  77.1056 283.0098 15.08848744 28168,6917.854,95.437,540.721,538.716,0.0
54184.0,STARLINK-5162,PAYLOAD,2023-04-30 16:25:12,15.08836592,0.0001527,53.2175,10.4659,72.5405,287.5753,0.00011584,1.556e-05,0.0,0 STARLINK-5162,1 54184U 22141AD  23120.68417598  .00001556  00000-0  11584-3 0  9997,2 54184  53.2175  10.4659 0001527  72.5405 287.5753 15.08836592 28486,6917.891,95.438,540.812,538.699,0.0
54184.0,STARLINK-5162,PAYLOAD,2023-04-30 22:46:45,15.08838099,0.0001543,53.2174,9.2761,72.4974,287.6186,5.8669e-05,6.46e-06,0.0,0 STARLINK-5162,1 54184U 22141AD  23120.94913615  .00000646  00000-0  58669-4 0  9992,2 54184  53.2174   9.2761 0001543  72.4974 287.6186 15.08838099 28297,6917.886,95.438,540.819,538.684,0.0
54184.0,STARLINK-5162,PAYLOAD,2023-05-01 21:02:08,15.08843841,0.0001384,53.2178,5.1124,73.6712,286.4433,0.00011061,1.473e-05,0.0,0 STARLINK-5162,1 54184U 22141AD  23121.87649258  .00001473  00000-0  11061-3 0  9997,2 54184  53.2178   5.1124 0001384  73.6712 286.4433 15.08843841 28669,6917.869,95.437,540.691,538.776,0.0
54184.0,STARLINK-5162,PAYLOAD,2023-05-02 01:48:17,15.0885078,0.0001167,53.2168,4.218,86.3126,273.8,0.00014163,1.968e-05,0.0,0 STARLINK-5162,1 54184U 22141AD  23122.07520595  .00001968  00000-0  14163-3 0  9997,2 54184  53.2168   4.2180 0001167  86.3126 273.8000 15.08850780 28692,6917.847,95.437,540.52,538.905,0.0
54184.0,STARLINK-5162,PAYLOAD,2023-05-02 19:17:32,15.08842864,0.0001496,53.217,0.944,109.8442,250.2711,6.8745e-05,8.06e-06,0.0,0 STARLINK-5162,1 54184U 22141AD  23122.80385143  .00000806  00000-0  68745-4 0  9992,2 54184  53.2170   0.9440 0001496 109.8442 250.2711 15.08842864 28809,6917.872,95.437,540.772,538.702,0.0
54184.0,STARLINK-5162,PAYLOAD,2023-05-02 20:52:56,15.08841006,0.0001252,53.2176,0.6512,76.609,283.5041,7.6079e-05,9.23e-06,0.0,0 STARLINK-5162,1 54184U 22141AD  23122.87009413  .00000923  00000-0  76079-4 0  9991,2 54184  53.2176   0.6512 0001252  76.6090 283.5041 15.08841006 28589,6917.877,95.437,540.608,538.876,0.0
54184.0,STARLINK-5162,PAYLOAD,2023-05-03 11:11:24,15.08843323,0.0001109,53.2168,357.9752,85.6028,274.5091,3.0494e-05,1.98e-06,0.0,0 STARLINK-5162,1 54184U 22141AD  23123.46625384  .00000198  00000-0  30494-4 0  9993,2 54184  53.2168 357.9752 0001109  85.6028 274.5091 15.08843323 28675,6917.87,95.437,540.502,538.968,0.0
54184.0,STARLINK-5162,PAYLOAD,2023-05-03 19:08:20,15.08838986,0.0001098,53.217,356.4888,84.1995,275.9122,-1.1502e-05,-4.71e-06,0.0,0 STARLINK-5162,1 54184U 22141AD  23123.79745697 -.00000471  00000-0 -11502-4 0  9994,2 54184  53.2170 356.4888 0001098  84.1995 275.9122 15.08838986 28956,6917.883,95.438,540.508,538.989,0.0
54184.0,STARLINK-5162,PAYLOAD,2023-05-03 20:43:43,15.08839671,0.0001092,53.2169,356.1914,83.8334,276.2782,-8.6182e-06,-4.25e-06,0.0,0 STARLINK-5162,1 54184U 22141AD  23123.86369638 -.00000425  00000-0 -86182-5 0  9995,2 54184  53.2169 356.1914 0001092  83.8334 276.2782 15.08839671 28732,6917.881,95.438,540.502,538.991,0.0
54184.0,STARLINK-5162,PAYLOAD,2023-05-04 01:29:52,15.08846397,0.0001036,53.2169,355.2982,92.6903,267.4208,-4.2065e-07,-2.94e-06,0.0,0 STARLINK-5162,1 54184U 22141AD  23124.06241101 -.00000294  00000-0 -42065-6 0  9999,2 54184  53.2169 355.2982 0001036  92.6903 267.4208 15.08846397 28991,6917.861,95.437,540.443,539.009,0.0
54184.0,STARLINK-5162,PAYLOAD,2023-05-04 07:51:25,15.08840338,0.0001097,53.2168,354.1078,82.3176,277.7941,-1.6926e-05,-5.57e-06,0.0,0 STARLINK-5162,1 54184U 22141AD  23124.32737547 -.00000557  00000-0 -16926-4 0  9999,2 54184  53.2168 354.1078 0001097  82.3176 277.7941 15.08840338 29032,6917.879,95.438,540.503,538.985,0.0
54184.0,STARLINK-5162,PAYLOAD,2023-05-04 22:09:53,15.08840345,9.45e-05,53.2168,351.4336,82.336,277.774,6.0427e-05,6.74e-06,0.0,0 STARLINK-5162,1 54184U 22141AD  23124.92353546  .00000674  00000-0  60427-4 0  9991,2 54184  53.2168 351.4336 0000945  82.3360 277.7740 15.08840345 28893,6917.879,95.438,540.398,539.091,0.0
54184.0,STARLINK-5162,PAYLOAD,2023-05-05 20:25:17,15.0883344,9.91e-05,53.2169,347.27,88.5755,271.535,8.7102e-05,1.099e-05,0.0,0 STARLINK-5162,1 54184U 22141AD  23125.85090266  .00001099  00000-0  87102-4 0  9992,2 54184  53.2169 347.2700 0000991  88.5755 271.5350 15.08833440 29268,6917.9,95.438,540.451,539.08,0.0
54184.0,STARLINK-5162,PAYLOAD,2023-05-05 22:00:40,15.08836188,9.74e-05,53.2168,346.9729,89.3383,270.7721,0.00010959,1.457e-05,0.0,0 STARLINK-5162,1 54184U 22141AD  23125.91714076  .00001457  00000-0  10959-3 0  9994,2 54184  53.2168 346.9729 0000974  89.3383 270.7721 15.08836188 29042,6917.892,95.438,540.431,539.083,0.0
54184.0,STARLINK-5162,PAYLOAD,2023-05-06 23:26:50,15.08850474,9.7e-05,53.2157,342.215,102.4766,257.6334,0.00015174,2.129e-05,0.0,0 STARLINK-5162,1 54184U 22141AD  23126.97697233  .00002129  00000-0  15174-3 0  9997,2 54184  53.2157 342.2150 0000970 102.4766 257.6334 15.08850474 29436,6917.848,95.437,540.384,539.042,0.0
54184.0,STARLINK-5162,PAYLOAD,2023-05-07 18:31:28,15.08835849,0.0001371,53.2163,338.6457,124.1532,235.959,8.8612e-06,-1.47e-06,0.0,0 STARLINK-5162,1 54184U 22141AD  23127.77186218 -.00000147  00000-0  88612-5 0  9990,2 54184  53.2163 338.6457 0001371 124.1532 235.9590 15.08835849 29555,6917.893,95.438,540.707,538.81,0.0
54184.0,STARLINK-5162,PAYLOAD,2023-05-07 21:42:15,15.08835465,0.0001035,53.2161,338.0517,82.5643,277.5467,3.6941e-05,3e-06,0.0,0 STARLINK-5162,1 54184U 22141AD  23127.90434484  .00000300  00000-0  36941-4 0  9993,2 54184  53.2161 338.0517 0001035  82.5643 277.5467 15.08835465 29347,6917.894,95.438,540.475,539.043,0.0
54184.0,STARLINK-5162,PAYLOAD,2023-05-08 19:57:38,15.08855675,9.16e-05,53.2162,333.888,94.0015,266.1082,0.00021297,3.105e-05,0.0,0 STARLINK-5162,1 54184U 22141AD  23128.83169582  .00003105  00000-0  21297-3 0  9993,2 54184  53.2162 333.8880 0000916  94.0015 266.1082 15.08855675 29715,6917.832,95.437,540.331,539.064,0.0
54184.0,STARLINK-5162,PAYLOAD,2023-05-09 19:48:26,15.08842332,0.0001049,53.216,329.4271,83.5838,276.5273,0.00017047,2.426e-05,0.0,0 STARLINK-5162,1 54184U 22141AD  23129.82530398  .00002426  00000-0  17047-3 0  9993,2 54184  53.2160 329.4271 0001049  83.5838 276.5273 15.08842332 29636,6917.873,95.437,540.464,539.013,0.0
54184.0,STARLINK-5162,PAYLOAD,2023-05-10 18:03:49,15.08847256,0.0001057,53.216,325.2641,74.2035,285.9074,0.00013168,1.809e-05,0.0,0 STARLINK-5162,1 54184U 22141AD  23130.75266137  .00001809  00000-0  13168-3 0  9998,2 54184  53.2160 325.2641 0001057  74.2035 285.9074 15.08847256 29774,6917.858,95.437,540.454,538.992,0.0
54184.0,STARLINK-5162,PAYLOAD,2023-05-11 19:30:00,15.08844461,0.0001059,53.2157,320.5065,78.6828,281.4283,0.00012236,1.66e-05,0.0,0 STARLINK-5162,1 54184U 22141AD  23131.81250176  .00001660  00000-0  12236-3 0  9992,2 54184  53.2157 320.5065 0001059  78.6828 281.4283 15.08844461 29934,6917.867,95.437,540.464,538.999,0.0
54184.0,STARLINK-5162,PAYLOAD,2023-05-12 05:02:19,15.08837445,9.76e-05,53.2151,318.7222,72.2007,287.9091,1.6404e-05,-2.7e-07,0.0,0 STARLINK-5162,1 54184U 22141AD  23132.20994522 -.00000027  00000-0  16404-4 0  9995,2 54184  53.2151 318.7222 0000976  72.2007 287.9091 15.08837445 29996,6917.888,95.438,540.428,539.078,0.0
54184.0,STARLINK-5162,PAYLOAD,2023-05-12 17:45:24,15.08835585,0.0001036,53.2156,316.3453,75.6949,284.4158,-5.9685e-05,-1.237e-05,0.0,0 STARLINK-5162,1 54184U 22141AD  23132.73986730 -.00001237  00000-0 -59685-4 0  9998,2 54184  53.2156 316.3453 0001036  75.6949 284.4158 15.08835585 30307,6917.894,95.438,540.476,539.042,0.0
54184.0,STARLINK-5162,PAYLOAD,2023-05-13 04:53:06,15.08840157,0.0001155,53.2178,314.2642,108.0129,252.0989,0.00012141,1.645e-05,0.0,0 STARLINK-5162,1 54184U 22141AD  23133.20354633  .00001645  00000-0  12141-3 0  9998,2 54184  53.2178 314.2642 0001155 108.0129 252.0989 15.08840157 30147,6917.88,95.438,540.544,538.946,0.0
54184.0,STARLINK-5162,PAYLOAD,2023-05-13 19:11:34,15.08842354,0.0001165,53.2173,311.589,109.7608,250.351,8.4471e-05,1.057e-05,0.0,0 STARLINK-5162,1 54184U 22141AD  23133.79970500  .00001057  00000-0  84471-4 0  9992,2 54184  53.2173 311.5890 0001165 109.7608 250.3510 15.08842354 30465,6917.873,95.437,540.544,538.932,0.0
54184.0,STARLINK-5162,PAYLOAD,2023-05-14 04:43:53,15.08839095,0.0001082,53.2168,309.8038,100.4113,259.7001,2.6259e-05,1.3e-06,0.0,0 STARLINK-5162,1 54184U 22141AD  23134.19714687  .00000130  00000-0  26259-4 0  9990,2 54184  53.2168 309.8038 0001082 100.4113 259.7001 15.08839095 30297,6917.883,95.438,540.497,539.0,0.0
